CCSDS_OMM_VERS = 2.0
CREATION_DATE  = 
ORIGINATOR     = 

OBJECT_NAME    = KUIPER-00268
OBJECT_ID      = 2026-030AC
CENTER_NAME    = EARTH
REF_FRAME      = TEME
TIME_SYSTEM    = UTC
MEAN_ELEMENT_THEORY = SGP/SGP4

EPOCH          = 2026-02-24T14:40:53.465088
MEAN_MOTION    = 15.35465457
ECCENTRICITY   = .00020763
INCLINATION    = 51.8857
RA_OF_ASC_NODE = 282.1691
ARG_OF_PERICENTER = 23.9715
MEAN_ANOMALY   = 336.1367

EPHEMERIS_TYPE = 0
CLASSIFICATION_TYPE = U
NORAD_CAT_ID   = 67790
ELEMENT_SET_NO = 999
REV_AT_EPOCH   = 308
BSTAR          = .72463673E-3
MEAN_MOTION_DOT = .25056E-3
MEAN_MOTION_DDOT = 0

CCSDS_OMM_VERS = 2.0
CREATION_DATE  = 
ORIGINATOR     = 

OBJECT_NAME    = KUIPER-00270
OBJECT_ID      = 2026-030AD
CENTER_NAME    = EARTH
REF_FRAME      = TEME
TIME_SYSTEM    = UTC
MEAN_ELEMENT_THEORY = SGP/SGP4

EPOCH          = 2026-02-24T14:56:48.719040
MEAN_MOTION    = 15.34068987
ECCENTRICITY   = .00099035
INCLINATION    = 51.8816
RA_OF_ASC_NODE = 282.2345
ARG_OF_PERICENTER = 19.0114
MEAN_ANOMALY   = 341.1240

EPHEMERIS_TYPE = 0
CLASSIFICATION_TYPE = U
NORAD_CAT_ID   = 67791
ELEMENT_SET_NO = 999
REV_AT_EPOCH   = 308
BSTAR          = .73756603E-3
MEAN_MOTION_DOT = .24418E-3
MEAN_MOTION_DDOT = 0

CCSDS_OMM_VERS = 2.0
CREATION_DATE  = 
ORIGINATOR     = 

OBJECT_NAME    = KUIPER-00274
OBJECT_ID      = 2026-030AE
CENTER_NAME    = EARTH
REF_FRAME      = TEME
TIME_SYSTEM    = UTC
MEAN_ELEMENT_THEORY = SGP/SGP4

EPOCH          = 2026-02-24T13:39:50.395392
MEAN_MOTION    = 15.32274027
ECCENTRICITY   = .00174123
INCLINATION    = 51.8830
RA_OF_ASC_NODE = 282.6261
ARG_OF_PERICENTER = 30.8970
MEAN_ANOMALY   = 329.3036

EPHEMERIS_TYPE = 0
CLASSIFICATION_TYPE = U
NORAD_CAT_ID   = 67792
ELEMENT_SET_NO = 999
REV_AT_EPOCH   = 307
BSTAR          = .25125765E-3
MEAN_MOTION_DOT = .7611E-4
MEAN_MOTION_DDOT = 0

CCSDS_OMM_VERS = 2.0
CREATION_DATE  = 
ORIGINATOR     = 

OBJECT_NAME    = KUIPER-00275
OBJECT_ID      = 2026-030AF
CENTER_NAME    = EARTH
REF_FRAME      = TEME
TIME_SYSTEM    = UTC
MEAN_ELEMENT_THEORY = SGP/SGP4

EPOCH          = 2026-02-24T14:53:53.570688
MEAN_MOTION    = 15.34344662
ECCENTRICITY   = .00080702
INCLINATION    = 51.8851
RA_OF_ASC_NODE = 282.2277
ARG_OF_PERICENTER = 17.2423
MEAN_ANOMALY   = 342.8836

EPHEMERIS_TYPE = 0
CLASSIFICATION_TYPE = U
NORAD_CAT_ID   = 67793
ELEMENT_SET_NO = 999
REV_AT_EPOCH   = 308
BSTAR          = .78339305E-3
MEAN_MOTION_DOT = .26183E-3
MEAN_MOTION_DDOT = 0

CCSDS_OMM_VERS = 2.0
CREATION_DATE  = 
ORIGINATOR     = 

OBJECT_NAME    = KUIPER-00276
OBJECT_ID      = 2026-030AG
CENTER_NAME    = EARTH
REF_FRAME      = TEME
TIME_SYSTEM    = UTC
MEAN_ELEMENT_THEORY = SGP/SGP4

EPOCH          = 2026-02-24T14:00:04.000032
MEAN_MOTION    = 15.31543824
ECCENTRICITY   = .00181938
INCLINATION    = 51.8826
RA_OF_ASC_NODE = 282.5853
ARG_OF_PERICENTER = 26.9995
MEAN_ANOMALY   = 36.6819

EPHEMERIS_TYPE = 0
CLASSIFICATION_TYPE = U
NORAD_CAT_ID   = 67794
ELEMENT_SET_NO = 999
REV_AT_EPOCH   = 278
BSTAR          = .16624077E-2
MEAN_MOTION_DOT = .51621E-3
MEAN_MOTION_DDOT = 0

CCSDS_OMM_VERS = 2.0
CREATION_DATE  = 
ORIGINATOR     = 

OBJECT_NAME    = KUIPER-00279
OBJECT_ID      = 2026-030AH
CENTER_NAME    = EARTH
REF_FRAME      = TEME
TIME_SYSTEM    = UTC
MEAN_ELEMENT_THEORY = SGP/SGP4

EPOCH          = 2026-02-24T14:49:15.016224
MEAN_MOTION    = 15.34775985
ECCENTRICITY   = .00062453
INCLINATION    = 51.8812
RA_OF_ASC_NODE = 282.2005
ARG_OF_PERICENTER = 12.2344
MEAN_ANOMALY   = 347.8792

EPHEMERIS_TYPE = 0
CLASSIFICATION_TYPE = U
NORAD_CAT_ID   = 67795
ELEMENT_SET_NO = 999
REV_AT_EPOCH   = 308
BSTAR          = .7380395E-3
MEAN_MOTION_DOT = .24976E-3
MEAN_MOTION_DDOT = 0

CCSDS_OMM_VERS = 2.0
CREATION_DATE  = 
ORIGINATOR     = 

OBJECT_NAME    = CREW DRAGON 12
OBJECT_ID      = 2026-031A
CENTER_NAME    = EARTH
REF_FRAME      = TEME
TIME_SYSTEM    = UTC
MEAN_ELEMENT_THEORY = SGP/SGP4

EPOCH          = 2026-02-24T12:58:47.876160
MEAN_MOTION    = 15.48264633
ECCENTRICITY   = .00083509
INCLINATION    = 51.6319
RA_OF_ASC_NODE = 137.3540
ARG_OF_PERICENTER = 128.7945
MEAN_ANOMALY   = 231.3790

EPHEMERIS_TYPE = 0
CLASSIFICATION_TYPE = U
NORAD_CAT_ID   = 67796
ELEMENT_SET_NO = 999
REV_AT_EPOCH   = 55426
BSTAR          = .20315178E-3
MEAN_MOTION_DOT = .10485E-3
MEAN_MOTION_DDOT = 0

CCSDS_OMM_VERS = 2.0
CREATION_DATE  = 
ORIGINATOR     = 

OBJECT_NAME    = STARLINK-36800
OBJECT_ID      = 2026-032A
CENTER_NAME    = EARTH
REF_FRAME      = TEME
TIME_SYSTEM    = UTC
MEAN_ELEMENT_THEORY = SGP/SGP4

EPOCH          = 2026-02-23T16:00:03.000096
MEAN_MOTION    = 15.90904989
ECCENTRICITY   = .0001284
INCLINATION    = 97.2870
RA_OF_ASC_NODE = 240.3960
ARG_OF_PERICENTER = 80.0984
MEAN_ANOMALY   = 214.9156

EPHEMERIS_TYPE = 0
CLASSIFICATION_TYPE = U
NORAD_CAT_ID   = 67797
ELEMENT_SET_NO = 999
REV_AT_EPOCH   = 252
BSTAR          = -.60359E-2
MEAN_MOTION_DOT = -.1862359E-1
MEAN_MOTION_DDOT = .94321E-3

CCSDS_OMM_VERS = 2.0
CREATION_DATE  = 
ORIGINATOR     = 

OBJECT_NAME    = STARLINK-36798
OBJECT_ID      = 2026-032B
CENTER_NAME    = EARTH
REF_FRAME      = TEME
TIME_SYSTEM    = UTC
MEAN_ELEMENT_THEORY = SGP/SGP4

EPOCH          = 2026-02-23T16:00:03.000096
MEAN_MOTION    = 15.91097752
ECCENTRICITY   = .0001244
INCLINATION    = 97.2865
RA_OF_ASC_NODE = 240.3974
ARG_OF_PERICENTER = 75.9154
MEAN_ANOMALY   = 222.8269

EPHEMERIS_TYPE = 0
CLASSIFICATION_TYPE = U
NORAD_CAT_ID   = 67798
ELEMENT_SET_NO = 999
REV_AT_EPOCH   = 246
BSTAR          = -.59881E-2
MEAN_MOTION_DOT = -.1865731E-1
MEAN_MOTION_DDOT = .94824E-3

CCSDS_OMM_VERS = 2.0
CREATION_DATE  = 
ORIGINATOR     = 

OBJECT_NAME    = STARLINK-36804
OBJECT_ID      = 2026-032C
CENTER_NAME    = EARTH
REF_FRAME      = TEME
TIME_SYSTEM    = UTC
MEAN_ELEMENT_THEORY = SGP/SGP4

EPOCH          = 2026-02-23T16:00:03.000096
MEAN_MOTION    = 15.91296785
ECCENTRICITY   = .0001357
INCLINATION    = 97.2863
RA_OF_ASC_NODE = 240.3994
ARG_OF_PERICENTER = 75.3637
MEAN_ANOMALY   = 227.4376

EPHEMERIS_TYPE = 0
CLASSIFICATION_TYPE = U
NORAD_CAT_ID   = 67799
ELEMENT_SET_NO = 999
REV_AT_EPOCH   = 246
BSTAR          = -.58889E-2
MEAN_MOTION_DOT = -.1853662E-1
MEAN_MOTION_DDOT = .93869E-3

CCSDS_OMM_VERS = 2.0
CREATION_DATE  = 
ORIGINATOR     = 

OBJECT_NAME    = STARLINK-36354
OBJECT_ID      = 2026-032D
CENTER_NAME    = EARTH
REF_FRAME      = TEME
TIME_SYSTEM    = UTC
MEAN_ELEMENT_THEORY = SGP/SGP4

EPOCH          = 2026-02-23T16:00:03.000096
MEAN_MOTION    = 15.91455237
ECCENTRICITY   = .000123
INCLINATION    = 97.2866
RA_OF_ASC_NODE = 240.4012
ARG_OF_PERICENTER = 78.0847
MEAN_ANOMALY   = 227.8964

EPHEMERIS_TYPE = 0
CLASSIFICATION_TYPE = U
NORAD_CAT_ID   = 67800
ELEMENT_SET_NO = 999
REV_AT_EPOCH   = 252
BSTAR          = -.58406E-2
MEAN_MOTION_DOT = -.1853319E-1
MEAN_MOTION_DDOT = .93987E-3

CCSDS_OMM_VERS = 2.0
CREATION_DATE  = 
ORIGINATOR     = 

OBJECT_NAME    = STARLINK-36773
OBJECT_ID      = 2026-032E
CENTER_NAME    = EARTH
REF_FRAME      = TEME
TIME_SYSTEM    = UTC
MEAN_ELEMENT_THEORY = SGP/SGP4

EPOCH          = 2026-02-23T16:00:03.000096
MEAN_MOTION    = 15.91618581
ECCENTRICITY   = .0001305
INCLINATION    = 97.2859
RA_OF_ASC_NODE = 240.4020
ARG_OF_PERICENTER = 74.0978
MEAN_ANOMALY   = 235.2493

EPHEMERIS_TYPE = 0
CLASSIFICATION_TYPE = U
NORAD_CAT_ID   = 67801
ELEMENT_SET_NO = 999
REV_AT_EPOCH   = 246
BSTAR          = -.57675E-2
MEAN_MOTION_DOT = -.1845584E-1
MEAN_MOTION_DDOT = .9341E-3

