KUIPER-00268            
1 67790U 26030AC  26055.61172992  .00025056  00000+0  72464-3 0  9998
2 67790  51.8857 282.1691 0002076  23.9715 336.1367 15.35465457  3081
KUIPER-00270            
1 67791U 26030AD  26055.62278610  .00024418  00000+0  73757-3 0  9991
2 67791  51.8816 282.2345 0009903  19.0114 341.1240 15.34068987  3081
KUIPER-00274            
1 67792U 26030AE  26055.56933328  .00007611  00000+0  25126-3 0  9992
2 67792  51.8830 282.6261 0017412  30.8970 329.3036 15.32274027  3076
KUIPER-00275            
1 67793U 26030AF  26055.62075892  .00026183  00000+0  78339-3 0  9992
2 67793  51.8851 282.2277 0008070  17.2423 342.8836 15.34344662  3089
KUIPER-00276            
1 67794U 26030AG  26055.58337963  .00051621  00000+0  16624-2 0  9991
2 67794  51.8826 282.5853 0018193  26.9995  36.6819 15.31543824  2786
KUIPER-00279            
1 67795U 26030AH  26055.61753491  .00024976  00000+0  73804-3 0  9991
2 67795  51.8812 282.2005 0006245  12.2344 347.8792 15.34775985  3088
CREW DRAGON 12          
1 67796U 26031A   26055.54083190  .00010485  00000+0  20315-3 0  9996
2 67796  51.6319 137.3540 0008350 128.7945 231.3790 15.48264633554266
STARLINK-36800          
1 67797U 26032A   26054.66670139 -.01862359  94321-3 -60359-2 0  9997
2 67797  97.2870 240.3960 0001284  80.0984 214.9156 15.90904989  2520
STARLINK-36798          
1 67798U 26032B   26054.66670139 -.01865731  94824-3 -59881-2 0  9991
2 67798  97.2865 240.3974 0001244  75.9154 222.8269 15.91097752  2466
STARLINK-36804          
1 67799U 26032C   26054.66670139 -.01853662  93869-3 -58889-2 0  9997
2 67799  97.2863 240.3994 0001357  75.3637 227.4376 15.91296785  2469
STARLINK-36354          
1 67800U 26032D   26054.66670139 -.01853319  93987-3 -58406-2 0  9995
2 67800  97.2866 240.4012 0001230  78.0847 227.8964 15.91455237  2523
STARLINK-36773          
1 67801U 26032E   26054.66670139 -.01845584  93410-3 -57675-2 0  9999
2 67801  97.2859 240.4020 0001305  74.0978 235.2493 15.91618581  2465
